[{"OBJECT_NAME":"TEVEL2-2","OBJECT_ID":"2025-052K","EPOCH":"2026-03-09T15:33:48.895776","MEAN_MOTION":15.30343745,"ECCENTRICITY":0.0004693,"INCLINATION":97.3987,"RA_OF_ASC_NODE":324.77,"ARG_OF_PERICENTER":105.793,"MEAN_ANOMALY":254.3828,"EPHEMERIS_TYPE":0,"CLASSIFICATION_TYPE":"U","NORAD_CAT_ID":63219,"ELEMENT_SET_NO":999,"REV_AT_EPOCH":5485,"BSTAR":0.00069428,"MEAN_MOTION_DOT":0.00020339,"MEAN_MOTION_DDOT":0},{"OBJECT_NAME":"STARLINK-34976","OBJECT_ID":"2025-176M","EPOCH":"2026-03-09T22:25:26.414400","MEAN_MOTION":15.30194246,"ECCENTRICITY":0.00010997,"INCLINATION":53.1579,"RA_OF_ASC_NODE":151.8934,"ARG_OF_PERICENTER":92.211,"MEAN_ANOMALY":267.9016,"EPHEMERIS_TYPE":0,"CLASSIFICATION_TYPE":"U","NORAD_CAT_ID":65209,"ELEMENT_SET_NO":999,"REV_AT_EPOCH":3315,"BSTAR":0.00076211159,"MEAN_MOTION_DOT":0.00022276,"MEAN_MOTION_DDOT":0}]
